start=new Date('2023-02-15T00:00:00.000Z').valueOf();
sats=[{"COUNTRY_CODE":"US","PERIAPSIS":"538.525","TIME_SYSTEM":"UTC","EPHEMERIS_TYPE":"0","INCLINATION":"53.2138","TLE_LINE1":"1 53146U 22083Q   23045.58913577  .00033747  00000-0  21270-2 0  9991","CLASSIFICATION_TYPE":"U","REF_FRAME":"TEME","OBJECT_NAME":"STARLINK-4099","CENTER_NAME":"EARTH","DECAY_DATE":null,"MEAN_ELEMENT_THEORY":"SGP4","PERIOD":"95.436","MEAN_MOTION_DDOT":"0.0000000000000","OBJECT_TYPE":"PAYLOAD","RA_OF_ASC_NODE":"157.9630","SITE":"AFETR","LAUNCH_DATE":"2022-07-17","MEAN_MOTION":"15.08862994","GP_ID":"225393262","RCS_SIZE":"LARGE","ELEMENT_SET_NO":"999","ARG_OF_PERICENTER":"92.3654","ECCENTRICITY":"0.00016620","FILE":"3791349","BSTAR":"0.00212700000000","TLE_LINE2":"2 53146  53.2138 157.9630 0001662  92.3654 267.7529 15.08862994 32272","REV_AT_EPOCH":"3227","APOAPSIS":"540.825","MEAN_ANOMALY":"267.7529","SEMIMAJOR_AXIS":"6917.810","MEAN_MOTION_DOT":"0.00033747","OBJECT_ID":"2022-083Q","EPOCH":"2023-02-14T14:08:21.330528","NORAD_CAT_ID":"53146"},{"TLE_LINE2":"2 53147  53.2166 157.4467 0001745  78.3833 281.7355 15.08850800 32942","REV_AT_EPOCH":"3294","SEMIMAJOR_AXIS":"6917.847","APOAPSIS":"540.920","MEAN_ANOMALY":"281.7355","MEAN_MOTION_DOT":"0.00001659","OBJECT_ID":"2022-083R","EPOCH":"2023-02-14T16:52:37.748352","NORAD_CAT_ID":"53147","SITE":"AFETR","RA_OF_ASC_NODE":"157.4467","MEAN_MOTION":"15.08850800","RCS_SIZE":"MEDIUM","GP_ID":"225434367","LAUNCH_DATE":"2022-07-17","ECCENTRICITY":"0.00017450","ELEMENT_SET_NO":"999","ARG_OF_PERICENTER":"78.3833","BSTAR":"0.00012230000000","FILE":"3792084","TLE_LINE1":"1 53147U 22083R   23045.70321468  .00001659  00000-0  12230-3 0  9992","CLASSIFICATION_TYPE":"U","REF_FRAME":"TEME","OBJECT_NAME":"STARLINK-4094","CENTER_NAME":"EARTH","MEAN_ELEMENT_THEORY":"SGP4","DECAY_DATE":null,"MEAN_MOTION_DDOT":"0.0000000000000","OBJECT_TYPE":"PAYLOAD","PERIOD":"95.437","TIME_SYSTEM":"UTC","COUNTRY_CODE":"US","PERIAPSIS":"538.505","EPHEMERIS_TYPE":"0","INCLINATION":"53.2166"},{"BSTAR":"-0.00344550000000","FILE":"3792084","ECCENTRICITY":"0.00007910","ELEMENT_SET_NO":"999","ARG_OF_PERICENTER":"105.6071","MEAN_MOTION":"15.08386073","GP_ID":"225433125","RCS_SIZE":"LARGE","LAUNCH_DATE":"2022-07-17","RA_OF_ASC_NODE":"157.4182","SITE":"AFETR","NORAD_CAT_ID":"53148","EPOCH":"2023-02-14T17:03:59.233536","MEAN_MOTION_DOT":"-0.00054037","OBJECT_ID":"2022-083S","SEMIMAJOR_AXIS":"6919.268","APOAPSIS":"541.681","MEAN_ANOMALY":"254.5008","TLE_LINE2":"2 53148  53.2187 157.4182 0000791 105.6071 254.5008 15.08386073 32295","REV_AT_EPOCH":"3229","INCLINATION":"53.2187","EPHEMERIS_TYPE":"0","TIME_SYSTEM":"UTC","COUNTRY_CODE":"US","PERIAPSIS":"540.586","OBJECT_TYPE":"PAYLOAD","MEAN_MOTION_DDOT":"0.0000000000000","PERIOD":"95.466","MEAN_ELEMENT_THEORY":"SGP4","DECAY_DATE":null,"OBJECT_NAME":"STARLINK-4066","CENTER_NAME":"EARTH","REF_FRAME":"TEME","TLE_LINE1":"1 53148U 22083S   23045.71110224 -.00054037  00000-0 -34455-2 0  9992","CLASSIFICATION_TYPE":"U"},{"EPHEMERIS_TYPE":"0","INCLINATION":"53.2175","TIME_SYSTEM":"UTC","COUNTRY_CODE":"US","PERIAPSIS":"538.834","MEAN_ELEMENT_THEORY":"SGP4","DECAY_DATE":null,"MEAN_MOTION_DDOT":"0.0000000000000","OBJECT_TYPE":"PAYLOAD","PERIOD":"95.436","TLE_LINE1":"1 53149U 22083T   23045.71149276  .00032904  00000-0  20747-2 0  9998","CLASSIFICATION_TYPE":"U","REF_FRAME":"TEME","CENTER_NAME":"EARTH","OBJECT_NAME":"STARLINK-4021","ECCENTRICITY":"0.00012260","ELEMENT_SET_NO":"999","ARG_OF_PERICENTER":"89.7263","BSTAR":"0.00207470000000","FILE":"3792084","SITE":"AFETR","RA_OF_ASC_NODE":"147.4078","MEAN_MOTION":"15.08860815","RCS_SIZE":"LARGE","GP_ID":"225433876","LAUNCH_DATE":"2022-07-17","MEAN_MOTION_DOT":"0.00032904","OBJECT_ID":"2022-083T","NORAD_CAT_ID":"53149","EPOCH":"2023-02-14T17:04:32.974464","TLE_LINE2":"2 53149  53.2175 147.4078 0001226  89.7263 270.3870 15.08860815 32435","REV_AT_EPOCH":"3243","SEMIMAJOR_AXIS":"6917.817","APOAPSIS":"540.530","MEAN_ANOMALY":"270.3870"},{"MEAN_MOTION_DOT":"0.00032171","OBJECT_ID":"2022-083U","EPOCH":"2023-02-14T18:02:50.441280","NORAD_CAT_ID":"53150","REV_AT_EPOCH":"3243","TLE_LINE2":"2 53150  53.2162 147.2216 0001426  84.6111 275.5043 15.08865483 32438","MEAN_ANOMALY":"275.5043","APOAPSIS":"540.654","SEMIMAJOR_AXIS":"6917.802","ARG_OF_PERICENTER":"84.6111","ELEMENT_SET_NO":"999","ECCENTRICITY":"0.00014260","FILE":"3792084","BSTAR":"0.00202880000000","RA_OF_ASC_NODE":"147.2216","SITE":"AFETR","LAUNCH_DATE":"2022-07-17","RCS_SIZE":"LARGE","GP_ID":"225434127","MEAN_MOTION":"15.08865483","DECAY_DATE":null,"MEAN_ELEMENT_THEORY":"SGP4","PERIOD":"95.436","OBJECT_TYPE":"PAYLOAD","MEAN_MOTION_DDOT":"0.0000000000000","CLASSIFICATION_TYPE":"U","TLE_LINE1":"1 53150U 22083U   23045.75197270  .00032171  00000-0  20288-2 0  9997","OBJECT_NAME":"STARLINK-4038","CENTER_NAME":"EARTH","REF_FRAME":"TEME","EPHEMERIS_TYPE":"0","INCLINATION":"53.2162","PERIAPSIS":"538.681","COUNTRY_CODE":"US","TIME_SYSTEM":"UTC"},{"MEAN_MOTION":"15.08881691","GP_ID":"225434866","RCS_SIZE":"LARGE","LAUNCH_DATE":"2022-07-17","RA_OF_ASC_NODE":"146.9725","SITE":"AFETR","BSTAR":"0.00321980000000","FILE":"3792084","ECCENTRICITY":"0.00008830","ELEMENT_SET_NO":"999","ARG_OF_PERICENTER":"119.0920","SEMIMAJOR_AXIS":"6917.753","APOAPSIS":"540.229","MEAN_ANOMALY":"241.0160","REV_AT_EPOCH":"3244","TLE_LINE2":"2 53151  53.2154 146.9725 0000883 119.0920 241.0160 15.08881691 32446","NORAD_CAT_ID":"53151","EPOCH":"2023-02-14T19:22:19.565760","MEAN_MOTION_DOT":"0.00051388","OBJECT_ID":"2022-083V","TIME_SYSTEM":"UTC","COUNTRY_CODE":"US","PERIAPSIS":"539.007","INCLINATION":"53.2154","EPHEMERIS_TYPE":"0","CENTER_NAME":"EARTH","OBJECT_NAME":"STARLINK-4040","REF_FRAME":"TEME","TLE_LINE1":"1 53151U 22083V   23045.80717090  .00051388  00000-0  32198-2 0  9996","CLASSIFICATION_TYPE":"U","MEAN_MOTION_DDOT":"0.0000000000000","OBJECT_TYPE":"PAYLOAD","PERIOD":"95.435","MEAN_ELEMENT_THEORY":"SGP4","DECAY_DATE":null},{"MEAN_MOTION_DDOT":"0.0000000000000","OBJECT_TYPE":"PAYLOAD","PERIOD":"95.436","MEAN_ELEMENT_THEORY":"SGP4","DECAY_DATE":null,"CENTER_NAME":"EARTH","OBJECT_NAME":"STARLINK-4045","REF_FRAME":"TEME","TLE_LINE1":"1 53152U 22083W   23045.74828469  .00000972  00000-0  79140-4 0  9996","CLASSIFICATION_TYPE":"U","INCLINATION":"53.2181","EPHEMERIS_TYPE":"0","TIME_SYSTEM":"UTC","COUNTRY_CODE":"US","PERIAPSIS":"538.884","NORAD_CAT_ID":"53152","EPOCH":"2023-02-14T17:57:31.797216","MEAN_MOTION_DOT":"0.00000972","OBJECT_ID":"2022-083W","SEMIMAJOR_AXIS":"6917.827","APOAPSIS":"540.499","MEAN_ANOMALY":"265.8964","REV_AT_EPOCH":"3243","TLE_LINE2":"2 53152  53.2181 147.2367 0001167  94.2162 265.8964 15.08857560 32434","BSTAR":"0.00007914000000","FILE":"3792084","ECCENTRICITY":"0.00011670","ELEMENT_SET_NO":"999","ARG_OF_PERICENTER":"94.2162","MEAN_MOTION":"15.08857560","GP_ID":"225433625","RCS_SIZE":"LARGE","LAUNCH_DATE":"2022-07-17","SITE":"AFETR","RA_OF_ASC_NODE":"147.2367"},{"FILE":"3792084","BSTAR":"0.00295920000000","ELEMENT_SET_NO":"999","ARG_OF_PERICENTER":"111.0094","ECCENTRICITY":"0.00010070","LAUNCH_DATE":"2022-07-17","MEAN_MOTION":"15.08860107","GP_ID":"225434376","RCS_SIZE":"LARGE","SITE":"AFETR","RA_OF_ASC_NODE":"147.8850","NORAD_CAT_ID":"53153","EPOCH":"2023-02-14T14:30:52.679232","MEAN_MOTION_DOT":"0.00047149","OBJECT_ID":"2022-083X","APOAPSIS":"540.381","MEAN_ANOMALY":"249.1006","SEMIMAJOR_AXIS":"6917.819","TLE_LINE2":"2 53153  53.2149 147.8850 0001007 111.0094 249.1006 15.08860107 32418","REV_AT_EPOCH":"3241","INCLINATION":"53.2149","EPHEMERIS_TYPE":"0","COUNTRY_CODE":"US","PERIAPSIS":"538.987","TIME_SYSTEM":"UTC","PERIOD":"95.436","MEAN_MOTION_DDOT":"0.0000000000000","OBJECT_TYPE":"PAYLOAD","DECAY_DATE":null,"MEAN_ELEMENT_THEORY":"SGP4","REF_FRAME":"TEME","OBJECT_NAME":"STARLINK-4098","CENTER_NAME":"EARTH","TLE_LINE1":"1 53153U 22083X   23045.60477638  .00047149  00000-0  29592-2 0  9991","CLASSIFICATION_TYPE":"U"},{"TLE_LINE2":"2 53154  53.2151 148.1526 0001352  85.4531 274.6616 15.08859214 33035","REV_AT_EPOCH":"3303","APOAPSIS":"540.622","MEAN_ANOMALY":"274.6616","SEMIMAJOR_AXIS":"6917.822","OBJECT_ID":"2022-083Y","MEAN_MOTION_DOT":"0.00054838","NORAD_CAT_ID":"53154","EPOCH":"2023-02-14T13:06:05.415264","SITE":"AFETR","RA_OF_ASC_NODE":"148.1526","LAUNCH_DATE":"2022-07-17","MEAN_MOTION":"15.08859214","RCS_SIZE":"LARGE","GP_ID":"225400003","ELEMENT_SET_NO":"999","ARG_OF_PERICENTER":"85.4531","ECCENTRICITY":"0.00013520","FILE":"3791582","BSTAR":"0.00343520000000","TLE_LINE1":"1 53154U 22083Y   23045.54589601  .00054838  00000-0  34352-2 0  9992","CLASSIFICATION_TYPE":"U","OBJECT_NAME":"STARLINK-4077","REF_FRAME":"TEME","CENTER_NAME":"EARTH","DECAY_DATE":null,"MEAN_ELEMENT_THEORY":"SGP4","PERIOD":"95.436","MEAN_MOTION_DDOT":"0.0000000000000","OBJECT_TYPE":"PAYLOAD","COUNTRY_CODE":"US","PERIAPSIS":"538.751","TIME_SYSTEM":"UTC","EPHEMERIS_TYPE":"0","INCLINATION":"53.2151"},{"ECCENTRICITY":"0.00011810","ELEMENT_SET_NO":"999","ARG_OF_PERICENTER":"89.5117","BSTAR":"0.00313240000000","FILE":"3792084","RA_OF_ASC_NODE":"147.0298","SITE":"AFETR","MEAN_MOTION":"15.08877430","RCS_SIZE":"LARGE","GP_ID":"225434368","LAUNCH_DATE":"2022-07-17","OBJECT_ID":"2022-083Z","MEAN_MOTION_DOT":"0.00049969","EPOCH":"2023-02-14T19:06:25.775424","NORAD_CAT_ID":"53155","REV_AT_EPOCH":"3308","TLE_LINE2":"2 53155  53.2157 147.0298 0001181  89.5117 270.6011 15.08877430 33081","SEMIMAJOR_AXIS":"6917.766","APOAPSIS":"540.448","MEAN_ANOMALY":"270.6011","EPHEMERIS_TYPE":"0","INCLINATION":"53.2157","TIME_SYSTEM":"UTC","COUNTRY_CODE":"US","PERIAPSIS":"538.814","MEAN_ELEMENT_THEORY":"SGP4","DECAY_DATE":null,"MEAN_MOTION_DDOT":"0.0000000000000","OBJECT_TYPE":"PAYLOAD","PERIOD":"95.435","TLE_LINE1":"1 53155U 22083Z   23045.79613166  .00049969  00000-0  31324-2 0  9999","CLASSIFICATION_TYPE":"U","REF_FRAME":"TEME","CENTER_NAME":"EARTH","OBJECT_NAME":"STARLINK-4088"}];
